{"type": "FeatureCollection", "features": [ {"type": "Feature", "properties": {"norad_id": 39084, "name": "LANDSAT 8", "group": "resource", "lat": -60.05335935249402, "lon": -151.10160558592557, "alt_km": 710.3154047540993, "timestamp": "2025-12-01T03:58:49.207386+00:00", "meta": {"OBJECT_NAME": "LANDSAT 8", "OBJECT_ID": "2013-008A", "EPOCH": "2025-11-30T18:38:13.988256", "MEAN_MOTION": 14.57120927, "ECCENTRICITY": 0.0001092, "INCLINATION": 98.2087, "RA_OF_ASC_NODE": 43.0257, "ARG_OF_PERICENTER": 88.067, "MEAN_ANOMALY": 272.0654, "EPHEMERIS_TYPE": 0, "CLASSIFICATION_TYPE": "U", "NORAD_CAT_ID": 39084, "ELEMENT_SET_NO": 999, "REV_AT_EPOCH": 66900, "BSTAR": 0.00010837, "MEAN_MOTION_DOT": 4.43e-06, "MEAN_MOTION_DDOT": 0, "GROUP": "resource"}, "tle": {"line1": "1 39084U 13008A   25334.77655079  .00000443  00000+0  10837-3 0  9991", "line2": "2 39084  98.2087  43.0257 0001092  88.0670 272.0654 14.57120927669007"}}, "geometry": {"type": "Point", "coordinates": [-151.10160558592557, -60.05335935249402]}}, {"type": "Feature", "properties": {"norad_id": 39086, "name": "SARAL", "group": "resource", "lat": 19.768421753021283, "lon": -17.653502149844773, "alt_km": 781.0257168770595, "timestamp": "2025-12-01T03:58:49.207396+00:00", "meta": {"OBJECT_NAME": "SARAL", "OBJECT_ID": "2013-009A", "EPOCH": "2025-11-30T18:51:22.817664", "MEAN_MOTION": 14.32750111, "ECCENTRICITY": 0.0002533, "INCLINATION": 98.5507, "RA_OF_ASC_NODE": 158.8718, "ARG_OF_PERICENTER": 131.7264, "MEAN_ANOMALY": 228.4137, "EPHEMERIS_TYPE": 0, "CLASSIFICATION_TYPE": "U", "NORAD_CAT_ID": 39086, "ELEMENT_SET_NO": 999, "REV_AT_EPOCH": 66719, "BSTAR": 7.1717e-05, "MEAN_MOTION_DOT": 1.52e-06, "MEAN_MOTION_DDOT": 0, "GROUP": "resource"}, "tle": {"line1": "1 39086U 13009A   25334.78568076  .00000152  00000+0  71717-4 0  9997", "line2": "2 39086  98.5507 158.8718 0002533 131.7264 228.4137 14.32750111667198"}}, "geometry": {"type": "Point", "coordinates": [-17.653502149844773, 19.768421753021283]}}, {"type": "Feature", "properties": {"norad_id": 39150, "name": "GAOFEN-1", "group": "resource", "lat": -79.190867273279, "lon": 92.95247692760934, "alt_km": 649.4017265943894, "timestamp": "2025-12-01T03:58:49.207407+00:00", "meta": {"OBJECT_NAME": "GAOFEN-1", "OBJECT_ID": "2013-018A", "EPOCH": "2025-11-30T20:13:22.062144", "MEAN_MOTION": 14.76498966, "ECCENTRICITY": 0.001746, "INCLINATION": 97.934, "RA_OF_ASC_NODE": 45.7115, "ARG_OF_PERICENTER": 180.5292, "MEAN_ANOMALY": 179.5902, "EPHEMERIS_TYPE": 0, "CLASSIFICATION_TYPE": "U", "NORAD_CAT_ID": 39150, "ELEMENT_SET_NO": 999, "REV_AT_EPOCH": 67897, "BSTAR": 0.00012943, "MEAN_MOTION_DOT": 8.52e-06, "MEAN_MOTION_DDOT": 0, "GROUP": "resource"}, "tle": {"line1": "1 39150U 13018A   25334.84261646  .00000852  00000+0  12943-3 0  9991", "line2": "2 39150  97.9340  45.7115 0017460 180.5292 179.5902 14.76498966678970"}}, "geometry": {"type": "Point", "coordinates": [92.95247692760934, -79.190867273279]}}, {"type": "Feature", "properties": {"norad_id": 39160, "name": "VNREDSAT 1", "group": "resource", "lat": 75.04577604949026, "lon": -117.65629198409856, "alt_km": 669.3496378149594, "timestamp": "2025-12-01T03:58:49.207417+00:00", "meta": {"OBJECT_NAME": "VNREDSAT 1", "OBJECT_ID": "2013-021B", "EPOCH": "2025-11-30T19:19:00.241824", "MEAN_MOTION": 14.64892803, "ECCENTRICITY": 0.0001399, "INCLINATION": 97.939, "RA_OF_ASC_NODE": 30.4973, "ARG_OF_PERICENTER": 84.3805, "MEAN_ANOMALY": 275.7558, "EPHEMERIS_TYPE": 0, "CLASSIFICATION_TYPE": "U", "NORAD_CAT_ID": 39160, "ELEMENT_SET_NO": 999, "REV_AT_EPOCH": 67124, "BSTAR": 0.00014464, "MEAN_MOTION_DOT": 7.27e-06, "MEAN_MOTION_DDOT": 0, "GROUP": "resource"}, "tle": {"line1": "1 39160U 13021B   25334.80486391  .00000727  00000+0  14464-3 0  9999", "line2": "2 39160  97.9390  30.4973 0001399  84.3805 275.7558 14.64892803671248"}}, "geometry": {"type": "Point", "coordinates": [-117.65629198409856, 75.04577604949026]}}, {"type": "Feature", "properties": {"norad_id": 39227, "name": "ARIRANG-5 (KOMPSAT-5)", "group": "resource", "lat": -26.106382498409037, "lon": 163.39434999606357, "alt_km": 559.9707207922711, "timestamp": "2025-12-01T03:58:49.207430+00:00", "meta": {"OBJECT_NAME": "ARIRANG-5 (KOMPSAT-5)", "OBJECT_ID": "2013-042A", "EPOCH": "2025-11-30T20:06:58.715712", "MEAN_MOTION": 15.04524774, "ECCENTRICITY": 0.0004516, "INCLINATION": 97.6166, "RA_OF_ASC_NODE": 159.3116, "ARG_OF_PERICENTER": 88.7766, "MEAN_ANOMALY": 271.3977, "EPHEMERIS_TYPE": 0, "CLASSIFICATION_TYPE": "U", "NORAD_CAT_ID": 39227, "ELEMENT_SET_NO": 999, "REV_AT_EPOCH": 67403, "BSTAR": 0.00012928, "MEAN_MOTION_DOT": 1.75e-05, "MEAN_MOTION_DDOT": 0, "GROUP": "resource"}, "tle": {"line1": "1 39227U 13042A   25334.83817958  .00001750  00000+0  12928-3 0  9996", "line2": "2 39227  97.6166 159.3116 0004516  88.7766 271.3977 15.04524774674039"}}, "geometry": {"type": "Point", "coordinates": [163.39434999606357, -26.106382498409037]}}, {"type": "Feature", "properties": {"norad_id": 39418, "name": "SKYSAT-A", "group": "resource", "lat": 54.09018546646453, "lon": 15.368026237235874, "alt_km": 536.7600491218755, "timestamp": "2025-12-01T03:58:49.207443+00:00", "meta": {"OBJECT_NAME": "SKYSAT-A", "OBJECT_ID": "2013-066C", "EPOCH": "2025-11-30T15:01:39.503424", "MEAN_MOTION": 15.11462805, "ECCENTRICITY": 0.0020601, "INCLINATION": 97.4133, "RA_OF_ASC_NODE": 25.203, "ARG_OF_PERICENTER": 281.395, "MEAN_ANOMALY": 78.4966, "EPHEMERIS_TYPE": 0, "CLASSIFICATION_TYPE": "U", "NORAD_CAT_ID": 39418, "ELEMENT_SET_NO": 999, "REV_AT_EPOCH": 65847, "BSTAR": 0.00026412, "MEAN_MOTION_DOT": 4.426e-05, "MEAN_MOTION_DDOT": 0, "GROUP": "resource"}, "tle": {"line1": "1 39418U 13066C   25334.62615166  .00004426  00000+0  26412-3 0  9994", "line2": "2 39418  97.4133  25.2030 0020601 281.3950  78.4966 15.11462805658476"}}, "geometry": {"type": "Point", "coordinates": [15.368026237235874, 54.09018546646453]}}, {"type": "Feature", "properties": {"norad_id": 39419, "name": "DUBAISAT-2", "group": "resource", "lat": -27.29065999590117, "lon": -30.19883115494088, "alt_km": 540.5963906676861, "timestamp": "2025-12-01T03:58:49.207453+00:00", "meta": {"OBJECT_NAME": "DUBAISAT-2", "OBJECT_ID": "2013-066D", "EPOCH": "2025-11-30T21:43:57.449856", "MEAN_MOTION": 15.08178827, "ECCENTRICITY": 0.0011813, "INCLINATION": 97.4449, "RA_OF_ASC_NODE": 325.6805, "ARG_OF_PERICENTER": 4.6587, "MEAN_ANOMALY": 355.475, "EPHEMERIS_TYPE": 0, "CLASSIFICATION_TYPE": "U", "NORAD_CAT_ID": 39419, "ELEMENT_SET_NO": 999, "REV_AT_EPOCH": 65648, "BSTAR": 0.00033119, "MEAN_MOTION_DOT": 5.067e-05, "MEAN_MOTION_DDOT": 0, "GROUP": "resource"}, "tle": {"line1": "1 39419U 13066D   25334.90552604  .00005067  00000+0  33119-3 0  9997", "line2": "2 39419  97.4449 325.6805 0011813   4.6587 355.4750 15.08178827656483"}}, "geometry": {"type": "Point", "coordinates": [-30.19883115494088, -27.29065999590117]}}, {"type": "Feature", "properties": {"norad_id": 39574, "name": "GPM-CORE", "group": "resource", "lat": -20.379289567903314, "lon": -118.52357166408656, "alt_km": 432.8703031174964, "timestamp": "2025-12-01T03:58:49.207467+00:00", "meta": {"OBJECT_NAME": "GPM-CORE", "OBJECT_ID": "2014-009C", "EPOCH": "2025-11-30T18:45:25.970976", "MEAN_MOTION": 15.4506851, "ECCENTRICITY": 0.0010574, "INCLINATION": 64.975, "RA_OF_ASC_NODE": 252.7578, "ARG_OF_PERICENTER": 268.3895, "MEAN_ANOMALY": 91.6034, "EPHEMERIS_TYPE": 0, "CLASSIFICATION_TYPE": "U", "NORAD_CAT_ID": 39574, "ELEMENT_SET_NO": 999, "REV_AT_EPOCH": 66716, "BSTAR": 0.00035724, "MEAN_MOTION_DOT": 0.00016798, "MEAN_MOTION_DDOT": 0, "GROUP": "resource"}, "tle": {"line1": "1 39574U 14009C   25334.78155059  .00016798  00000+0  35724-3 0  9993", "line2": "2 39574  64.9750 252.7578 0010574 268.3895  91.6034 15.45068510667169"}}, "geometry": {"type": "Point", "coordinates": [-118.52357166408656, -20.379289567903314]}}, {"type": "Feature", "properties": {"norad_id": 39634, "name": "SENTINEL-1A", "group": "resource", "lat": -20.874800043510575, "lon": 157.4333054402083, "alt_km": 701.4374409663506, "timestamp": "2025-12-01T03:58:49.207477+00:00", "meta": {"OBJECT_NAME": "SENTINEL-1A", "OBJECT_ID": "2014-016A", "EPOCH": "2025-11-29T13:12:39.063168", "MEAN_MOTION": 14.59200674, "ECCENTRICITY": 0.00012599, "INCLINATION": 98.1807, "RA_OF_ASC_NODE": 338.9865, "ARG_OF_PERICENTER": 87.4187, "MEAN_ANOMALY": 272.7157, "EPHEMERIS_TYPE": 0, "CLASSIFICATION_TYPE": "U", "NORAD_CAT_ID": 39634, "ELEMENT_SET_NO": 999, "REV_AT_EPOCH": 62090, "BSTAR": 2.664147e-05, "MEAN_MOTION_DOT": 8e-07, "MEAN_MOTION_DDOT": 0, "GROUP": "resource"}, "tle": {"line1": "1 39634U 14016A   25333.55045212  .00000080  00000+0  26641-4 0  9997", "line2": "2 39634  98.1807 338.9865 0001259  87.4187 272.7157 14.59200674620900"}}, "geometry": {"type": "Point", "coordinates": [157.4333054402083, -20.874800043510575]}}, {"type": "Feature", "properties": {"norad_id": 39731, "name": "KAZEOSAT 1", "group": "resource", "lat": 11.13408229966846, "lon": -131.01239476558584, "alt_km": 752.8913533387404, "timestamp": "2025-12-01T03:58:49.207487+00:00", "meta": {"OBJECT_NAME": "KAZEOSAT 1", "OBJECT_ID": "2014-024A", "EPOCH": "2025-11-30T20:32:23.631648", "MEAN_MOTION": 14.42051088, "ECCENTRICITY": 0.0001052, "INCLINATION": 98.3447, "RA_OF_ASC_NODE": 47.0292, "ARG_OF_PERICENTER": 97.7556, "MEAN_ANOMALY": 262.3753, "EPHEMERIS_TYPE": 0, "CLASSIFICATION_TYPE": "U", "NORAD_CAT_ID": 39731, "ELEMENT_SET_NO": 999, "REV_AT_EPOCH": 60997, "BSTAR": 8.4887e-05, "MEAN_MOTION_DOT": 2.36e-06, "MEAN_MOTION_DDOT": 0, "GROUP": "resource"}, "tle": {"line1": "1 39731U 14024A   25334.85582907  .00000236  00000+0  84887-4 0  9994", "line2": "2 39731  98.3447  47.0292 0001052  97.7556 262.3753 14.42051088609973"}}, "geometry": {"type": "Point", "coordinates": [-131.01239476558584, 11.13408229966846]}}]}